OBJECT_NAME,OBJECT_ID,EPOCH,MEAN_MOTION,ECCENTRICITY,INCLINATION,RA_OF_ASC_NODE,ARG_OF_PERICENTER,MEAN_ANOMALY,EPHEMERIS_TYPE,CLASSIFICATION_TYPE,NORAD_CAT_ID,ELEMENT_SET_NO,REV_AT_EPOCH,BSTAR,MEAN_MOTION_DOT,MEAN_MOTION_DDOT
TIANMU-1 20,2023-208B,2026-06-30T21:40:06.237408,15.32967180,.00055706,97.4464,298.9241,273.3324,86.7281,0,U,58661,999,13952,.28349227E-3,.8953E-4,0
TIANMU-1 21,2023-208C,2026-06-30T22:27:13.622976,15.35317640,.0005719,97.4523,301.6976,262.8989,97.1604,0,U,58662,999,13967,.31760761E-3,.1082E-3,0
TIANMU-1 22,2023-208D,2026-06-30T22:15:36.108864,15.31246508,.00022188,97.4518,298.2237,298.0835,62.0182,0,U,58663,999,13943,.28689381E-3,.8582E-4,0
TIANMU-1 15,2024-004A,2026-06-30T11:12:42.827904,15.26842605,.00055277,97.4663,7.6584,295.8617,64.2051,0,U,58700,999,13780,.20672607E-3,.5379E-4,0
TIANMU-1 16,2024-004B,2026-06-30T23:33:56.138400,15.26886580,.00045945,97.4610,7.3973,313.3295,46.7560,0,U,58701,999,13788,.23411171E-3,.611E-4,0
TIANMU-1 17,2024-004C,2026-06-30T23:13:00.265152,15.26884924,.00042304,97.4637,7.8728,321.3501,38.7434,0,U,58702,999,13787,.22611478E-3,.5898E-4,0
TIANMU-1 18,2024-004D,2026-06-30T22:37:27.001632,15.26802844,.00034521,97.4656,8.1094,297.0019,63.0867,0,U,58703,999,13787,.21096601E-3,.5483E-4,0
INSAT-3DS,2024-033A,2026-06-30T21:14:31.661088,1.00269789,.00014815,0.0689,97.5434,353.1103,228.9728,0,U,58990,999,4720,0,-.145E-5,0
METEOR-M2 4,2024-039A,2026-06-30T23:17:28.256352,14.22430883,.00079626,98.7017,141.0956,124.3365,235.8568,0,U,59051,999,12122,.22610208E-4,.7E-7,0
GOES 19,2024-119A,2026-06-30T18:50:56.604768,1.00271774,.0000533,0.0112,146.5388,5.4080,334.4491,0,U,60133,999,710,0,-.238E-5,0
MTG-S1,2025-143A,2026-06-30T21:55:38.648064,1.00272432,.0002837,0.5927,341.8214,264.9155,0.6886,0,U,64723,999,355,0,.3E-7,0
METOP-SGA1,2025-172A,2026-06-30T04:14:42.500256,14.19817036,.0007902,98.6640,240.6295,16.3379,343.8051,0,U,65159,999,4563,.4049376E-4,.43E-6,0
FENGYUN 3H,2025-219A,2026-06-30T18:46:01.274016,14.19922624,.00014275,98.6769,122.2868,66.8698,293.2629,0,U,65815,999,3931,.40409146E-4,.42E-6,0
