TIANMU-1 20             
1 58661U 23208B   26181.90284997  .00008953  00000+0  28349-3 0  9990
2 58661  97.4464 298.9241 0005570 273.3324  86.7281 15.32967180139522
TIANMU-1 21             
1 58662U 23208C   26181.93557434  .00010820  00000+0  31761-3 0  9991
2 58662  97.4523 301.6976 0005719 262.8989  97.1604 15.35317640139675
TIANMU-1 22             
1 58663U 23208D   26181.92750126  .00008582  00000+0  28689-3 0  9991
2 58663  97.4518 298.2237 0002218 298.0835  62.0182 15.31246508139439
TIANMU-1 15             
1 58700U 24004A   26181.46716236  .00005379  00000+0  20673-3 0  9997
2 58700  97.4663   7.6584 0005527 295.8617  64.2051 15.26842605137800
TIANMU-1 16             
1 58701U 24004B   26181.98189975  .00006110  00000+0  23411-3 0  9996
2 58701  97.4610   7.3973 0004594 313.3295  46.7560 15.26886580137881
TIANMU-1 17             
1 58702U 24004C   26181.96736418  .00005898  00000+0  22611-3 0  9998
2 58702  97.4637   7.8728 0004230 321.3501  38.7434 15.26884924137870
TIANMU-1 18             
1 58703U 24004D   26181.94267363  .00005483  00000+0  21097-3 0  9992
2 58703  97.4656   8.1094 0003452 297.0019  63.0867 15.26802844137872
INSAT-3DS               
1 58990U 24033A   26181.88508867 -.00000145  00000+0  00000+0 0  9990
2 58990   0.0689  97.5434 0001481 353.1103 228.9728  1.00269789 47201
METEOR-M2 4             
1 59051U 24039A   26181.97046593  .00000007  00000+0  22610-4 0  9990
2 59051  98.7017 141.0956 0007962 124.3365 235.8568 14.22430883121228
GOES 19                 
1 60133U 24119A   26181.78537737 -.00000238  00000+0  00000+0 0  9997
2 60133   0.0112 146.5388 0000533   5.4080 334.4491  1.00271774  7107
MTG-S1                  
1 64723U 25143A   26181.91364176  .00000003  00000+0  00000+0 0  9993
2 64723   0.5927 341.8214 0002837 264.9155   0.6886  1.00272432  3554
METOP-SGA1              
1 65159U 25172A   26181.17688079  .00000043  00000+0  40494-4 0  9998
2 65159  98.6640 240.6295 0007902  16.3379 343.8051 14.19817036 45638
FENGYUN 3H              
1 65815U 25219A   26181.78195919  .00000042  00000+0  40409-4 0  9997
2 65815  98.6769 122.2868 0001427  66.8698 293.2629 14.19922624 39317
